[{"OBJECT_NAME":"APRIZESAT 3","OBJECT_ID":"2009-041F","EPOCH":"2026-03-09T21:53:07.275264","MEAN_MOTION":14.95902996,"ECCENTRICITY":0.00628853,"INCLINATION":98.1904,"RA_OF_ASC_NODE":217.4844,"ARG_OF_PERICENTER":35.8471,"MEAN_ANOMALY":324.6944,"EPHEMERIS_TYPE":0,"CLASSIFICATION_TYPE":"U","NORAD_CAT_ID":35686,"ELEMENT_SET_NO":999,"REV_AT_EPOCH":90153,"BSTAR":0.00014818153,"MEAN_MOTION_DOT":1.656e-5,"MEAN_MOTION_DDOT":0},{"OBJECT_NAME":"STARLINK-3974","OBJECT_ID":"2022-052AN","EPOCH":"2026-03-09T20:15:56.978208","MEAN_MOTION":15.08839998,"ECCENTRICITY":9.658e-5,"INCLINATION":53.2157,"RA_OF_ASC_NODE":268.4569,"ARG_OF_PERICENTER":72.43,"MEAN_ANOMALY":287.6798,"EPHEMERIS_TYPE":0,"CLASSIFICATION_TYPE":"U","NORAD_CAT_ID":52634,"ELEMENT_SET_NO":999,"REV_AT_EPOCH":21101,"BSTAR":2.4454624e-5,"MEAN_MOTION_DOT":1.01e-6,"MEAN_MOTION_DDOT":0}]
